start=new Date('2023-01-16T00:00:00.000Z').valueOf();
sats=[{"TLE_LINE1":"1 45399U 20019AR  23015.95340508  .00008570  00000-0  59343-3 0  9994","SITE":"AFETR","RA_OF_ASC_NODE":"253.4882","CENTER_NAME":"EARTH","MEAN_ELEMENT_THEORY":"SGP4","BSTAR":"0.00059343000000","RCS_SIZE":"LARGE","NORAD_CAT_ID":"45399","MEAN_ANOMALY":"284.9072","REV_AT_EPOCH":"15681","FILE":"3748322","APOAPSIS":"548.142","OBJECT_ID":"2020-019AR","EPOCH":"2023-01-15T22:52:54.198912","PERIAPSIS":"546.244","INCLINATION":"53.0533","TIME_SYSTEM":"UTC","GP_ID":"223145356","PERIOD":"95.592","COUNTRY_CODE":"US","SEMIMAJOR_AXIS":"6925.328","REF_FRAME":"TEME","ECCENTRICITY":"0.00013710","OBJECT_TYPE":"PAYLOAD","MEAN_MOTION_DDOT":"0.0000000000000","ELEMENT_SET_NO":"999","MEAN_MOTION":"15.06406718","MEAN_MOTION_DOT":"0.00008570","ARG_OF_PERICENTER":"75.2068","DECAY_DATE":null,"LAUNCH_DATE":"2020-03-18","OBJECT_NAME":"STARLINK-1255","EPHEMERIS_TYPE":"0","CLASSIFICATION_TYPE":"U","TLE_LINE2":"2 45399  53.0533 253.4882 0001371  75.2068 284.9072 15.06406718156814"},{"ARG_OF_PERICENTER":"99.0013","MEAN_MOTION_DOT":"0.00003700","DECAY_DATE":null,"OBJECT_NAME":"STARLINK-1213","LAUNCH_DATE":"2020-03-18","EPHEMERIS_TYPE":"0","CLASSIFICATION_TYPE":"U","TLE_LINE2":"2 45400  53.0572 253.7369 0001387  99.0013 261.1133 15.06081523156733","COUNTRY_CODE":"US","PERIOD":"95.612","SEMIMAJOR_AXIS":"6926.325","REF_FRAME":"TEME","MEAN_MOTION_DDOT":"0.0000000000000","OBJECT_TYPE":"PAYLOAD","ECCENTRICITY":"0.00013870","ELEMENT_SET_NO":"999","MEAN_MOTION":"15.06081523","FILE":"3748322","EPOCH":"2023-01-15T21:38:10.417344","APOAPSIS":"549.150","OBJECT_ID":"2020-019AS","INCLINATION":"53.0572","PERIAPSIS":"547.229","TIME_SYSTEM":"UTC","GP_ID":"223145608","TLE_LINE1":"1 45400U 20019AS  23015.90150946  .00003700  00000-0  26938-3 0  9991","SITE":"AFETR","RA_OF_ASC_NODE":"253.7369","MEAN_ELEMENT_THEORY":"SGP4","CENTER_NAME":"EARTH","BSTAR":"0.00026938000000","RCS_SIZE":"LARGE","MEAN_ANOMALY":"261.1133","NORAD_CAT_ID":"45400","REV_AT_EPOCH":"15673"},{"REF_FRAME":"TEME","COUNTRY_CODE":"US","SEMIMAJOR_AXIS":"6925.334","PERIOD":"95.592","MEAN_MOTION":"15.06404858","ELEMENT_SET_NO":"999","ECCENTRICITY":"0.00012580","MEAN_MOTION_DDOT":"0.0000000000000","OBJECT_TYPE":"PAYLOAD","LAUNCH_DATE":"2020-03-18","OBJECT_NAME":"STARLINK-1256","DECAY_DATE":null,"MEAN_MOTION_DOT":"0.00001030","ARG_OF_PERICENTER":"64.5446","TLE_LINE2":"2 45401  53.0543 253.7568 0001258  64.5446 295.5673 15.06404858156805","CLASSIFICATION_TYPE":"U","EPHEMERIS_TYPE":"0","BSTAR":"0.00008800800000","CENTER_NAME":"EARTH","MEAN_ELEMENT_THEORY":"SGP4","RA_OF_ASC_NODE":"253.7568","TLE_LINE1":"1 45401U 20019AT  23015.89810862  .00001030  00000-0  88008-4 0  9991","SITE":"AFETR","REV_AT_EPOCH":"15680","NORAD_CAT_ID":"45401","MEAN_ANOMALY":"295.5673","RCS_SIZE":"LARGE","OBJECT_ID":"2020-019AT","APOAPSIS":"548.070","EPOCH":"2023-01-15T21:33:16.584768","FILE":"3748322","GP_ID":"223145857","TIME_SYSTEM":"UTC","PERIAPSIS":"546.327","INCLINATION":"53.0543"},{"REF_FRAME":"TEME","COUNTRY_CODE":"US","PERIOD":"95.592","SEMIMAJOR_AXIS":"6925.343","MEAN_MOTION":"15.06401665","ELEMENT_SET_NO":"999","ECCENTRICITY":"0.00013750","OBJECT_TYPE":"PAYLOAD","MEAN_MOTION_DDOT":"0.0000000000000","LAUNCH_DATE":"2020-03-18","OBJECT_NAME":"STARLINK-1257","DECAY_DATE":null,"ARG_OF_PERICENTER":"94.8376","MEAN_MOTION_DOT":"0.00006843","TLE_LINE2":"2 45402  53.0515 253.7669 0001375  94.8376 265.2770 15.06401665156811","CLASSIFICATION_TYPE":"U","EPHEMERIS_TYPE":"0","BSTAR":"0.00047780000000","CENTER_NAME":"EARTH","MEAN_ELEMENT_THEORY":"SGP4","RA_OF_ASC_NODE":"253.7669","TLE_LINE1":"1 45402U 20019AU  23015.89348604  .00006843  00000-0  47780-3 0  9990","SITE":"AFETR","REV_AT_EPOCH":"15681","NORAD_CAT_ID":"45402","MEAN_ANOMALY":"265.2770","RCS_SIZE":"LARGE","EPOCH":"2023-01-15T21:26:37.193856","APOAPSIS":"548.161","OBJECT_ID":"2020-019AU","FILE":"3748322","GP_ID":"223144608","TIME_SYSTEM":"UTC","PERIAPSIS":"546.256","INCLINATION":"53.0515"},{"MEAN_MOTION_DOT":"0.00011502","ARG_OF_PERICENTER":"91.8524","DECAY_DATE":null,"OBJECT_NAME":"STARLINK-1259","LAUNCH_DATE":"2020-03-18","EPHEMERIS_TYPE":"0","CLASSIFICATION_TYPE":"U","TLE_LINE2":"2 45403  53.0541 253.6872 0001422  91.8524 268.2628 15.06405090156801","PERIOD":"95.592","COUNTRY_CODE":"US","SEMIMAJOR_AXIS":"6925.333","REF_FRAME":"TEME","OBJECT_TYPE":"PAYLOAD","MEAN_MOTION_DDOT":"0.0000000000000","ECCENTRICITY":"0.00014220","ELEMENT_SET_NO":"999","MEAN_MOTION":"15.06405090","FILE":"3748322","APOAPSIS":"548.183","OBJECT_ID":"2020-019AV","EPOCH":"2023-01-15T21:49:12.937728","INCLINATION":"53.0541","PERIAPSIS":"546.213","TIME_SYSTEM":"UTC","GP_ID":"223144857","TLE_LINE1":"1 45403U 20019AV  23015.90917752  .00011502  00000-0  78972-3 0  9994","SITE":"AFETR","RA_OF_ASC_NODE":"253.6872","MEAN_ELEMENT_THEORY":"SGP4","CENTER_NAME":"EARTH","BSTAR":"0.00078972000000","RCS_SIZE":"LARGE","MEAN_ANOMALY":"268.2628","NORAD_CAT_ID":"45403","REV_AT_EPOCH":"15680"},{"FILE":"3748322","APOAPSIS":"547.980","OBJECT_ID":"2020-019AW","EPOCH":"2023-01-15T22:05:08.115648","PERIAPSIS":"546.369","INCLINATION":"53.0505","GP_ID":"223146107","TIME_SYSTEM":"UTC","CENTER_NAME":"EARTH","MEAN_ELEMENT_THEORY":"SGP4","TLE_LINE1":"1 45404U 20019AW  23015.92023282  .00011533  00000-0  79157-3 0  9993","SITE":"AFETR","RA_OF_ASC_NODE":"253.6566","BSTAR":"0.00079157000000","RCS_SIZE":"LARGE","REV_AT_EPOCH":"15671","NORAD_CAT_ID":"45404","MEAN_ANOMALY":"265.5334","DECAY_DATE":null,"MEAN_MOTION_DOT":"0.00011533","ARG_OF_PERICENTER":"94.5788","LAUNCH_DATE":"2020-03-18","OBJECT_NAME":"STARLINK-1260","CLASSIFICATION_TYPE":"U","EPHEMERIS_TYPE":"0","TLE_LINE2":"2 45404  53.0505 253.6566 0001163  94.5788 265.5334 15.06412704156710","PERIOD":"95.591","COUNTRY_CODE":"US","SEMIMAJOR_AXIS":"6925.310","REF_FRAME":"TEME","ECCENTRICITY":"0.00011630","MEAN_MOTION_DDOT":"0.0000000000000","OBJECT_TYPE":"PAYLOAD","MEAN_MOTION":"15.06412704","ELEMENT_SET_NO":"999"},{"GP_ID":"223146356","TIME_SYSTEM":"UTC","INCLINATION":"53.0527","PERIAPSIS":"546.242","APOAPSIS":"548.173","EPOCH":"2023-01-15T20:08:21.899904","OBJECT_ID":"2020-019AX","FILE":"3748322","REV_AT_EPOCH":"15670","MEAN_ANOMALY":"276.7785","NORAD_CAT_ID":"45405","RCS_SIZE":"LARGE","BSTAR":"0.00008257500000","MEAN_ELEMENT_THEORY":"SGP4","CENTER_NAME":"EARTH","SITE":"AFETR","TLE_LINE1":"1 45405U 20019AX  23015.83914236  .00000949  00000-0  82575-4 0  9990","RA_OF_ASC_NODE":"254.0246","TLE_LINE2":"2 45405  53.0527 254.0246 0001394  83.3363 276.7785 15.06401985156708","CLASSIFICATION_TYPE":"U","EPHEMERIS_TYPE":"0","OBJECT_NAME":"STARLINK-1263","LAUNCH_DATE":"2020-03-18","DECAY_DATE":null,"ARG_OF_PERICENTER":"83.3363","MEAN_MOTION_DOT":"0.00000949","MEAN_MOTION":"15.06401985","ELEMENT_SET_NO":"999","OBJECT_TYPE":"PAYLOAD","MEAN_MOTION_DDOT":"0.0000000000000","ECCENTRICITY":"0.00013940","REF_FRAME":"TEME","SEMIMAJOR_AXIS":"6925.342","COUNTRY_CODE":"US","PERIOD":"95.592"},{"CLASSIFICATION_TYPE":"U","EPHEMERIS_TYPE":"0","TLE_LINE2":"2 45406  53.0537 253.6767 0001258  94.1258 265.9874 15.06399149156713","DECAY_DATE":null,"MEAN_MOTION_DOT":"0.00002637","ARG_OF_PERICENTER":"94.1258","OBJECT_NAME":"STARLINK-1265","LAUNCH_DATE":"2020-03-18","MEAN_MOTION_DDOT":"0.0000000000000","OBJECT_TYPE":"PAYLOAD","ECCENTRICITY":"0.00012580","MEAN_MOTION":"15.06399149","ELEMENT_SET_NO":"999","COUNTRY_CODE":"US","SEMIMAJOR_AXIS":"6925.351","PERIOD":"95.592","REF_FRAME":"TEME","INCLINATION":"53.0537","PERIAPSIS":"546.345","GP_ID":"223145107","TIME_SYSTEM":"UTC","FILE":"3748322","APOAPSIS":"548.087","EPOCH":"2023-01-15T21:54:31.717440","OBJECT_ID":"2020-019AY","RCS_SIZE":"LARGE","REV_AT_EPOCH":"15671","MEAN_ANOMALY":"265.9874","NORAD_CAT_ID":"45406","MEAN_ELEMENT_THEORY":"SGP4","CENTER_NAME":"EARTH","TLE_LINE1":"1 45406U 20019AY  23015.91286710  .00002637  00000-0  19586-3 0  9996","RA_OF_ASC_NODE":"253.6767","SITE":"AFETR","BSTAR":"0.00019586000000"},{"ELEMENT_SET_NO":"999","MEAN_MOTION":"15.06408849","MEAN_MOTION_DDOT":"0.0000000000000","OBJECT_TYPE":"PAYLOAD","ECCENTRICITY":"0.00011850","REF_FRAME":"TEME","COUNTRY_CODE":"US","SEMIMAJOR_AXIS":"6925.321","PERIOD":"95.592","TLE_LINE2":"2 45407  53.0527 253.6210 0001185  88.3549 271.7576 15.06408849156715","EPHEMERIS_TYPE":"0","CLASSIFICATION_TYPE":"U","OBJECT_NAME":"STARLINK-1275","LAUNCH_DATE":"2020-03-18","MEAN_MOTION_DOT":"0.00003546","ARG_OF_PERICENTER":"88.3549","DECAY_DATE":null,"MEAN_ANOMALY":"271.7576","NORAD_CAT_ID":"45407","REV_AT_EPOCH":"15671","RCS_SIZE":"LARGE","BSTAR":"0.00025679000000","RA_OF_ASC_NODE":"253.6210","TLE_LINE1":"1 45407U 20019AZ  23015.92665947  .00003546  00000-0  25679-3 0  9991","SITE":"AFETR","MEAN_ELEMENT_THEORY":"SGP4","CENTER_NAME":"EARTH","TIME_SYSTEM":"UTC","GP_ID":"223145357","INCLINATION":"53.0527","PERIAPSIS":"546.366","APOAPSIS":"548.007","OBJECT_ID":"2020-019AZ","EPOCH":"2023-01-15T22:14:23.378208","FILE":"3748322"},{"SEMIMAJOR_AXIS":"6925.339","COUNTRY_CODE":"US","PERIOD":"95.592","REF_FRAME":"TEME","OBJECT_TYPE":"PAYLOAD","MEAN_MOTION_DDOT":"0.0000000000000","ECCENTRICITY":"0.00015130","MEAN_MOTION":"15.06403263","ELEMENT_SET_NO":"999","DECAY_DATE":null,"ARG_OF_PERICENTER":"93.6680","MEAN_MOTION_DOT":"0.00002908","OBJECT_NAME":"STARLINK-1278","LAUNCH_DATE":"2020-03-18","CLASSIFICATION_TYPE":"U","EPHEMERIS_TYPE":"0","TLE_LINE2":"2 45408  53.0523 284.4582 0001513  93.6680 266.4482 15.06403263156279","MEAN_ELEMENT_THEORY":"SGP4","CENTER_NAME":"EARTH","RA_OF_ASC_NODE":"284.4582","TLE_LINE1":"1 45408U 20019BA  23015.74054636  .00002908  00000-0  21399-3 0  9995","SITE":"AFETR","BSTAR":"0.00021399000000","RCS_SIZE":"LARGE","REV_AT_EPOCH":"15627","MEAN_ANOMALY":"266.4482","NORAD_CAT_ID":"45408","FILE":"3748322","OBJECT_ID":"2020-019BA","APOAPSIS":"548.251","EPOCH":"2023-01-15T17:46:23.205504","INCLINATION":"53.0523","PERIAPSIS":"546.156","GP_ID":"223145609","TIME_SYSTEM":"UTC"}];
